     2              NAVIGATION DATA                         RINEX VERSION / TYPE
CCRINEXN V1.6.0 UX  CDDIS               04-AUG-25 12:26     PGM / RUN BY / DATE 
IGS BROADCAST EPHEMERIS FILE                                COMMENT             
    0.1211D-07  0.2235D-07 -0.5960D-07 -0.1192D-06          ION ALPHA           
    0.1065D+06  0.1311D+06 -0.6554D+05 -0.3277D+06          ION BETA            
   -0.931322574616D-09-0.266453525910D-14   319488     2378 DELTA-UTC: A0,A1,T,W
    18                                                      LEAP SECONDS        
                                                            END OF HEADER       
10 25  8  4  6  0  0.0-0.497814733535D-03-0.909494701773D-11 0.000000000000D+00
    0.230000000000D+02-0.810625000000D+02 0.357872049665D-08-0.314095754819D+01
   -0.423751771450D-05 0.103169193026D-01 0.532716512680D-05 0.515365261459D+04
    0.108000000000D+06 0.167638063431D-07 0.159343516401D+01-0.838190317154D-07
    0.989957966237D+00 0.291468750000D+03-0.231972329440D+01-0.753388524513D-08
   -0.282154610015D-10 0.100000000000D+01 0.237800000000D+04 0.000000000000D+00
    0.200000000000D+01 0.000000000000D+00 0.232830600000D-08 0.230000000000D+02
    0.103590000000D+06 0.400000000000D+01 0.000000000000D+00 0.000000000000D+00
11 25  8  4  6  0  0.0-0.655277166516D-03 0.101181285572D-10 0.000000000000D+00
    0.820000000000D+02 0.287187500000D+02 0.452697428093D-08 0.390932580323D+00
    0.154599547386D-05 0.199873291422D-02 0.204704701901D-05 0.515370261002D+04
    0.108000000000D+06-0.111758708954D-07 0.583360017321D+00 0.558793544769D-07
    0.965262775298D+00 0.342593750000D+03-0.241796238641D+01-0.832641825731D-08
   -0.896465912832D-10 0.100000000000D+01 0.237800000000D+04 0.000000000000D+00
    0.200000000000D+01 0.000000000000D+00-0.884756400000D-08 0.820000000000D+02
    0.100860000000D+06 0.400000000000D+01 0.000000000000D+00 0.000000000000D+00
13 25  8  4  6  0  0.0 0.700292643160D-03-0.341060513165D-12 0.000000000000D+00
    0.760000000000D+02-0.441875000000D+02 0.405445459859D-08 0.870067559383D+00
   -0.235438346863D-05 0.955280521885D-02 0.890903174877D-05 0.515368376541D+04
    0.108000000000D+06-0.912696123123D-07 0.277917293326D+01 0.540167093277D-07
    0.974752954556D+00 0.216500000000D+03 0.978385299686D+00-0.777996692399D-08
    0.312870175156D-09 0.100000000000D+01 0.237800000000D+04 0.000000000000D+00
    0.200000000000D+01 0.000000000000D+00-0.116415321827D-07 0.760000000000D+02
    0.101958000000D+06 0.400000000000D+01 0.000000000000D+00 0.000000000000D+00
14 25  8  4  6  0  0.0 0.680363271385D-03 0.466116034659D-11 0.000000000000D+00
    0.300000000000D+01 0.290312500000D+02 0.502199490053D-08-0.259278338489D+01
    0.139884650707D-05 0.607271003537D-02 0.819191336632D-05 0.515364030838D+04
    0.108000000000D+06-0.409781932831D-07-0.153781533316D+01-0.191852450371D-06
    0.942886261237D+00 0.214687500000D+03-0.276883507197D+01-0.804283501636D-08
   -0.317870383435D-09 0.100000000000D+01 0.237800000000D+04 0.000000000000D+00
    0.200000000000D+01 0.000000000000D+00-0.791624188423D-08 0.259000000000D+03
    0.100818000000D+06 0.400000000000D+01 0.000000000000D+00 0.000000000000D+00
15 25  8  4  6  0  0.0 0.324352644384D-03 0.386535248253D-11 0.000000000000D+00
    0.610000000000D+02-0.636562500000D+02 0.480162857853D-08 0.114114000209D+00
   -0.324100255966D-05 0.165565994102D-01 0.844895839691D-05 0.515361679268D+04
    0.108000000000D+06-0.296160578728D-06 0.246816808472D+01 0.353902578354D-07
    0.940238354644D+00 0.210281250000D+03 0.144340927670D+01-0.830820321287D-08
    0.264296723305D-09 0.100000000000D+01 0.237800000000D+04 0.000000000000D+00
    0.200000000000D+01 0.000000000000D+00-0.102445483208D-07 0.610000000000D+02
    0.106668000000D+06 0.400000000000D+01 0.000000000000D+00 0.000000000000D+00
17 25  8  4  6  0  0.0 0.162513460964D-03-0.159161572810D-10 0.000000000000D+00
    0.500000000000D+02 0.908125000000D+02 0.442339853802D-08 0.111578091259D+01
    0.440888106823D-05 0.130972637562D-01 0.711902976036D-05 0.515373628235D+04
    0.108000000000D+06 0.391155481338D-07-0.450109830024D+00-0.335276126862D-06
    0.962550374498D+00 0.243281250000D+03-0.120341818462D+01-0.803926343902D-08
   -0.138934358602D-09 0.100000000000D+01 0.237800000000D+04 0.000000000000D+00
    0.200000000000D+01 0.000000000000D+00-0.111758708954D-07 0.500000000000D+02
    0.104808000000D+06 0.400000000000D+01 0.000000000000D+00 0.000000000000D+00
18 25  8  4  6  0  0.0-0.581888481975D-03 0.738964445190D-11 0.000000000000D+00
    0.480000000000D+02 0.330625000000D+02 0.422124726046D-08-0.899500485131D+00
    0.158883631229D-05 0.544489547610D-02 0.289082527161D-05 0.515368252373D+04
    0.108000000000D+06 0.145286321640D-06 0.557874885728D+00-0.745058059692D-07
    0.973423151781D+00 0.331968750000D+03-0.293795012525D+01-0.806819321549D-08
   -0.875036448780D-10 0.100000000000D+01 0.237800000000D+04 0.000000000000D+00
    0.200000000000D+01 0.000000000000D+00-0.838190317154D-08 0.560000000000D+03
    0.100824000000D+06 0.400000000000D+01 0.000000000000D+00 0.000000000000D+00
19 25  8  4  6  0  0.0 0.651696231216D-03 0.295585778076D-11 0.000000000000D+00
    0.870000000000D+02 0.108687500000D+03 0.435303846438D-08 0.295446583107D+01
    0.560842454433D-05 0.107675855979D-01 0.726059079170D-05 0.515366273880D+04
    0.108000000000D+06-0.169500708580D-06-0.406077521662D+00 0.100582838059D-06
    0.961787805043D+00 0.240812500000D+03 0.283783623644D+01-0.781746848608D-08
   -0.112861844006D-09 0.100000000000D+01 0.237800000000D+04 0.000000000000D+00
    0.200000000000D+01 0.000000000000D+00-0.153668224812D-07 0.870000000000D+02
    0.107982000000D+06 0.400000000000D+01 0.000000000000D+00 0.000000000000D+00
20 25  8  4  6  0  0.0 0.363298226148D-03-0.113686837722D-12 0.000000000000D+00
    0.100000000000D+03-0.823750000000D+02 0.449947313540D-08-0.648336705849D+00
   -0.425241887569D-05 0.340382277500D-02 0.372342765331D-05 0.515355766296D+04
    0.108000000000D+06 0.521540641785D-07 0.140251295122D+01 0.931322574615D-07
    0.959079320475D+00 0.308343750000D+03-0.225913567903D+01-0.828570227562D-08
   -0.128933942045D-09 0.100000000000D+01 0.237800000000D+04 0.000000000000D+00
    0.200000000000D+01 0.000000000000D+00-0.838190317154D-08 0.100000000000D+03
    0.100818000000D+06 0.400000000000D+01 0.000000000000D+00 0.000000000000D+00
21 25  8  4  6  0  0.0 0.155369751155D-03 0.259205990005D-10 0.000000000000D+00
    0.100000000000D+01-0.981250000000D+02 0.436268172320D-08 0.230599941852D+01
   -0.507384538650D-05 0.138332950883D-03 0.501051545143D-05 0.515364668846D+04
    0.108000000000D+06 0.409781932831D-07 0.160852298864D+01 0.204890966415D-07
    0.959804143718D+00 0.283593750000D+03 0.101455082167D+01-0.812855287257D-08
   -0.696457581682D-10 0.100000000000D+01 0.237800000000D+04 0.000000000000D+00
    0.200000000000D+01 0.000000000000D+00-0.838190317154D-08 0.769000000000D+03
    0.100818000000D+06 0.400000000000D+01 0.000000000000D+00 0.000000000000D+00
23 25  8  4  6  0  0.0 0.521470326930D-03 0.602540239925D-11 0.000000000000D+00
    0.520000000000D+02-0.854687500000D+02 0.372551232540D-08-0.195604748628D+01
   -0.436417758465D-05 0.547965441365D-02 0.494532287121D-05 0.515366425323D+04
    0.108000000000D+06-0.931322574615D-07 0.156234268059D+01-0.596046447754D-07
    0.985019154802D+00 0.298281250000D+03-0.284691501534D+01-0.767817696975D-08
   -0.285726187357D-11 0.100000000000D+01 0.237800000000D+04 0.000000000000D+00
    0.200000000000D+01 0.000000000000D+00-0.838190317154D-08 0.820000000000D+03
    0.106752000000D+06 0.400000000000D+01 0.000000000000D+00 0.000000000000D+00
24 25  8  4  6  0  0.0-0.340464059263D-03 0.101181285572D-10 0.000000000000D+00
    0.870000000000D+02 0.278125000000D+01 0.543844081860D-08-0.732623061605D+00
    0.474974513054D-06 0.170704332413D-01 0.685453414917D-05 0.515366067696D+04
    0.108000000000D+06-0.298023223877D-07-0.270834990036D+01 0.286847352982D-06
    0.934650515214D+00 0.237500000000D+03 0.107890825990D+01-0.853749847822D-08
    0.319299014371D-09 0.100000000000D+01 0.237800000000D+04 0.000000000000D+00
    0.200000000000D+01 0.000000000000D+00 0.232830600000D-08 0.870000000000D+02
    0.103500000000D+06 0.400000000000D+01 0.000000000000D+00 0.000000000000D+00
26 25  8  4  6  0  0.0-0.260831322521D-03 0.909494701773D-12 0.000000000000D+00
    0.240000000000D+02 0.142812500000D+02 0.539272462863D-08 0.297337264870D+01
    0.696629285812D-06 0.101579860784D-01 0.782310962677D-05 0.515360925102D+04
    0.108000000000D+06-0.819563865662D-07-0.164861483207D+01-0.119209289551D-06
    0.928543980624D+00 0.213531250000D+03 0.637473381942D+00-0.811605235187D-08
   -0.239652839646D-09 0.100000000000D+01 0.237800000000D+04 0.000000000000D+00
    0.200000000000D+01 0.000000000000D+00 0.651925802231D-08 0.240000000000D+02
    0.100827000000D+06 0.400000000000D+01 0.000000000000D+00 0.000000000000D+00
27 25  8  4  6  0  0.0-0.234842300415D-04-0.113686837722D-12 0.000000000000D+00
    0.102000000000D+03 0.757187500000D+02 0.466197990446D-08 0.119938516817D+01
    0.414066016674D-05 0.134536097758D-01 0.771507620812D-05 0.515366062164D+04
    0.108000000000D+06-0.178813934326D-06-0.521329458550D+00 0.195577740669D-06
    0.955828758927D+00 0.230218750000D+03 0.850467753076D+00-0.823570019283D-08
   -0.263939565571D-09 0.100000000000D+01 0.237800000000D+04 0.000000000000D+00
    0.280000000000D+01 0.000000000000D+00 0.232830643654D-08 0.102000000000D+03
    0.100818000000D+06 0.400000000000D+01 0.000000000000D+00 0.000000000000D+00
